     2              NAVIGATION DATA                         RINEX VERSION / TYPE
CCRINEXN V1.6.0 UX  CDDIS               21-MAY-18 23:30     PGM / RUN BY / DATE
IGS BROADCAST EPHEMERIS FILE                                COMMENT
    0.7451D-08  0.2235D-07 -0.5960D-07 -0.1192D-06          ION ALPHA
    0.8602D+05  0.8192D+05 -0.1311D+06 -0.5243D+06          ION BETA
   -0.931322574615D-09 0.000000000000D+00   319488     2002 DELTA-UTC: A0,A1,T,W
    18                                                      LEAP SECONDS
                                                            END OF HEADER
 1 18  5 21 18  0  0.0-0.496362335980D-04-0.295585778076D-11 0.000000000000D+00
    0.660000000000D+02-0.777812500000D+02 0.448447234902D-08-0.510607573952D+00
   -0.414811074734D-05 0.778751831967D-02 0.495836138725D-05 0.515366916084D+04
    0.151200000000D+06 0.838190317154D-07-0.262250441187D+01 0.173225998878D-06
    0.971347815233D+00 0.287375000000D+03 0.625475598712D+00-0.832820390428D-08
   -0.265368199637D-09 0.100000000000D+01 0.200200000000D+04 0.000000000000D+00
    0.280000000000D+01 0.000000000000D+00 0.558793544769D-08 0.660000000000D+02
    0.144030000000D+06 0.000000000000D+00 0.000000000000D+00 0.000000000000D+00
 3 18  5 21 18  0  0.0 0.746883451939D-04 0.716227077646D-11 0.000000000000D+00
    0.440000000000D+02-0.618125000000D+02 0.422874757433D-08-0.137936384379D+01
   -0.313110649586D-05 0.138395873364D-02 0.109300017357D-04 0.515376028061D+04
    0.151200000000D+06 0.316649675369D-07-0.157963156787D+01-0.106170773506D-06
    0.960645652233D+00 0.170812500000D+03 0.424663101494D+00-0.781246800585D-08
    0.539308181446D-10 0.100000000000D+01 0.200200000000D+04 0.000000000000D+00
    0.200000000000D+01 0.000000000000D+00 0.232830643654D-08 0.440000000000D+02
    0.145650000000D+06 0.000000000000D+00 0.000000000000D+00 0.000000000000D+00
 6 18  5 21 18  0  0.0 0.401904806495D-03-0.261479726760D-11 0.000000000000D+00
    0.360000000000D+02-0.768750000000D+02 0.435268130665D-08-0.364450483225D+00
   -0.397115945816D-05 0.118666212074D-02 0.530853867531D-05 0.515362887573D+04
    0.151200000000D+06-0.298023223877D-07-0.263083351840D+01-0.316649675369D-07
    0.971069408756D+00 0.284312500000D+03-0.106802895800D+01-0.811712382507D-08
   -0.150720563831D-09 0.100000000000D+01 0.200200000000D+04 0.000000000000D+00
    0.200000000000D+01 0.000000000000D+00 0.465661287308D-08 0.360000000000D+02
    0.144000000000D+06 0.000000000000D+00 0.000000000000D+00 0.000000000000D+00
 7 18  5 21 18  0  0.0 0.188170466572D-03-0.613908923697D-11 0.000000000000D+00
    0.880000000000D+02 0.107187500000D+02 0.480305706319D-08-0.119831574579D+01
    0.599771738052D-06 0.116056209663D-01 0.637955963612D-05 0.515365866280D+04
    0.151200000000D+06 0.270083546638D-06 0.531747909069D+00-0.298023223877D-07
    0.958904219421D+00 0.250250000000D+03-0.253235843576D+01-0.816819767380D-08
   -0.153577831008D-09 0.100000000000D+01 0.200200000000D+04 0.000000000000D+00
    0.200000000000D+01 0.000000000000D+00-0.111758708954D-07 0.880000000000D+02
    0.144030000000D+06 0.000000000000D+00 0.000000000000D+00 0.000000000000D+00
 9 18  5 21 18  0  0.0 0.514077953994D-03 0.568434188608D-12 0.000000000000D+00
    0.770000000000D+02 0.300625000000D+02 0.474841188591D-08 0.183294004504D+01
    0.162795186043D-05 0.943485531025D-03 0.803358852863D-05 0.515361596870D+04
    0.151200000000D+06 0.502914190292D-07-0.545600542224D+00-0.186264514923D-08
    0.952837982372D+00 0.220062500000D+03 0.185372880875D+01-0.809176547989D-08
    0.336799754752D-09 0.100000000000D+01 0.200200000000D+04 0.000000000000D+00
    0.200000000000D+01 0.000000000000D+00 0.931322574616D-09 0.770000000000D+02
    0.144030000000D+06 0.000000000000D+00 0.000000000000D+00 0.000000000000D+00
16 18  5 21 18  0  0.0 0.240821391344D-04-0.125055521494D-11 0.000000000000D+00
    0.650000000000D+02 0.581562500000D+02 0.389944831980D-08 0.259458884523D+01
    0.293180346489D-05 0.100337873446D-01 0.102072954178D-04 0.515363992310D+04
    0.151200000000D+06-0.137835741043D-06 0.164329437749D+01-0.137835741043D-06
    0.986872875354D+00 0.196062500000D+03 0.515660650993D+00-0.759888774127D-08
   -0.689314438862D-10 0.100000000000D+01 0.200200000000D+04 0.000000000000D+00
    0.200000000000D+01 0.000000000000D+00-0.107102096081D-07 0.650000000000D+02
    0.144030000000D+06 0.000000000000D+00 0.000000000000D+00 0.000000000000D+00
22 18  5 21 18  0  0.0-0.399412587285D-03-0.129602995003D-10 0.000000000000D+00
    0.730000000000D+02-0.722187500000D+02 0.514128561946D-08 0.990301027841D+00
   -0.382773578167D-05 0.738394970540D-02 0.105649232864D-04 0.515381445312D+04
    0.151200000000D+06-0.447034835815D-07-0.163900810359D+01-0.108033418655D-06
    0.924733348204D+00 0.161062500000D+03-0.153921791758D+01-0.840463609819D-08
   -0.142863097654D-11 0.100000000000D+01 0.200200000000D+04 0.000000000000D+00
    0.200000000000D+01 0.000000000000D+00-0.176951289177D-07 0.730000000000D+02
    0.144030000000D+06 0.000000000000D+00 0.000000000000D+00 0.000000000000D+00
23 18  5 21 18  0  0.0-0.216826330870D-03 0.454747350886D-12 0.000000000000D+00
    0.460000000000D+02 0.309687500000D+02 0.506449682192D-08 0.346781257723D+00
    0.176019966602D-05 0.125060153659D-01 0.786967575550D-05 0.515378994560D+04
    0.151200000000D+06-0.875443220139D-07-0.547174102261D+00 0.242143869400D-06
    0.943661505415D+00 0.220687500000D+03-0.236354485332D+01-0.838499225608D-08
    0.267153993372D-09 0.100000000000D+01 0.200200000000D+04 0.000000000000D+00
    0.200000000000D+01 0.000000000000D+00-0.200234353542D-07 0.460000000000D+02
    0.144030000000D+06 0.000000000000D+00 0.000000000000D+00 0.000000000000D+00
30 18  5 21 18  0  0.0 0.715991482139D-04-0.432009983342D-11 0.000000000000D+00
    0.640000000000D+02 0.528125000000D+01 0.510914155427D-08-0.109660042981D+01
    0.912696123123D-07 0.340823142324D-02 0.649504363537D-05 0.515373241615D+04
    0.151200000000D+06 0.149011611938D-07 0.565407316330D+00-0.596046447754D-07
    0.944492050822D+00 0.242375000000D+03-0.308795660842D+01-0.836249114400D-08
   -0.173935810199D-09 0.100000000000D+01 0.200200000000D+04 0.000000000000D+00
    0.200000000000D+01 0.000000000000D+00 0.372529029846D-08 0.640000000000D+02
    0.146730000000D+06 0.000000000000D+00 0.000000000000D+00 0.000000000000D+00
26 18  5 21 18  0  0.0-0.141748692840D-03 0.126192389871D-10 0.000000000000D+00
    0.880000000000D+02 0.573750000000D+02 0.457947635368D-08-0.280212651291D+01
    0.292621552944D-05 0.278658070601D-02 0.951439142227D-05 0.515366669083D+04
    0.151200000000D+06-0.745058059692D-07 0.154280695594D+01-0.465661287308D-07
    0.955643829990D+00 0.195312500000D+03 0.128003294091D+00-0.804247779485D-08
   -0.140720143871D-09 0.100000000000D+01 0.200200000000D+04 0.000000000000D+00
    0.200000000000D+01 0.000000000000D+00 0.745058059692D-08 0.880000000000D+02
    0.144030000000D+06 0.000000000000D+00 0.000000000000D+00 0.000000000000D+00

 